JAS-2 (FO-29)           
1 24278U 96046B   26115.59447711 -.00000004  00000+0  34217-4 0  9996
2 24278  98.5303 331.6515 0349018 232.8208 124.0594 13.53271563466059
FORTE                   
1 24920U 97047A   26115.76763961  .00000143  00000+0  80956-4 0  9993
2 24920  69.9511 132.4215 0022647 342.3482  17.6850 14.27921648491202
NOAA 15                 
1 25338U 98030A   26115.81338605  .00000123  00000+0  67771-4 0  9997
2 25338  98.5104 137.8531 0011117 136.4485 223.7575 14.27129817453825
TECHSAT 1B (GO-32)      
1 25397U 98043D   26115.59268000  .00000055  00000+0  43792-4 0  9993
2 25397  99.0061 107.0293 0001809  44.1616 315.9706 14.24417549443840
ISS (ZARYA)             
1 25544U 98067A   26115.61933537  .00010271  00000+0  19457-3 0  9991
2 25544  51.6320 200.2872 0006949 349.7097  10.3748 15.48952974563604
ORSTED                  
1 25635U 99008B   26115.73055598  .00000659  00000+0  15398-3 0  9992
2 25635  96.4836  35.1565 0131778 355.6864   4.3189 14.51753594434356
LANDSAT 7               
1 25682U 99020A   26115.82051056  .00000441  00000+0  92907-4 0  9994
2 25682  97.8594 121.8566 0001164  94.3162 342.3425 14.63870925438185
ORBCOMM FM36            
1 25984U 99065E   26115.48957845  .00000842  00000+0  31566-3 0  9999
2 25984  45.0400  49.7365 0003123  37.2539 322.8526 14.39096116379394
DMSP 5D-3 F15 (USA 147) 
1 25991U 99067A   26115.85475691  .00000132  00000+0  87611-4 0  9999
2 25991  99.0011 153.7446 0010690 146.7534 294.2486 14.17543083363232
OPAL (OO-38)            
1 26063U 00004C   26115.78263188  .00000098  00000+0  51682-4 0  9991
2 26063 100.1897  42.9475 0035699 182.0717 178.0322 14.37945076375750
IMAGE                   
1 26113U 00017A   26115.50651904  .00000098  00000+0  38868-2 0  9997
2 26113  94.1879 314.6723 7471665 293.8028   7.8719  1.68665580160618
CLUSTER II-FM7 (SAMBA)  
1 26410U 00041A   26116.81760381  .00002042  00000+0  00000+0 0  9994
2 26410 149.6713  42.1462 8992296 258.6890   0.4419  0.44809102 20073
CLUSTER II-FM8 (TANGO)  
1 26464U 00045B   26116.63281142  .00002138  00000+0  00000+0 0  9996
2 26464 149.9394  43.1014 8995813 259.4942   0.9419  0.44399945 20062
MEGSAT-1                
1 26546U 00057B   26115.72801431  .00003098  00000+0  22514-3 0  9992
2 26546  64.5499 237.1752 0040255 289.5687  70.1086 15.05188535389766
PHASE 3D (AO-40)        
1 26609U 00072B   26115.17202368 -.00000285  00000+0  00000+0 0  9990
2 26609   9.5037 359.1846 7934401 161.8495 265.2104  1.25588532116846
ODIN                    
1 26702U 01007A   26115.65153451  .00048977  00000+0  53518-3 0  9999
2 26702  97.3973 153.7627 0001967  40.6172 319.5233 15.63195176381160
OMNI-M1                 
1 26857U 01026A   26111.15376347 -.00000011  00000+0  00000+0 0  9995
2 26857  44.8539 258.4070 0016219  42.5384 317.5957  3.92401460203331
