[{"OBJECT_NAME":"JAS-2 (FO-29)","OBJECT_ID":"1996-046B","EPOCH":"2026-04-25T14:16:02.822304","MEAN_MOTION":13.53271563,"ECCENTRICITY":0.0349018,"INCLINATION":98.5303,"RA_OF_ASC_NODE":331.6515,"ARG_OF_PERICENTER":232.8208,"MEAN_ANOMALY":124.0594,"EPHEMERIS_TYPE":0,"CLASSIFICATION_TYPE":"U","NORAD_CAT_ID":24278,"ELEMENT_SET_NO":999,"REV_AT_EPOCH":46605,"BSTAR":3.4217e-5,"MEAN_MOTION_DOT":-4.0e-8,"MEAN_MOTION_DDOT":0},{"OBJECT_NAME":"FORTE","OBJECT_ID":"1997-047A","EPOCH":"2026-04-25T18:25:24.062304","MEAN_MOTION":14.27921648,"ECCENTRICITY":0.0022647,"INCLINATION":69.9511,"RA_OF_ASC_NODE":132.4215,"ARG_OF_PERICENTER":342.3482,"MEAN_ANOMALY":17.685,"EPHEMERIS_TYPE":0,"CLASSIFICATION_TYPE":"U","NORAD_CAT_ID":24920,"ELEMENT_SET_NO":999,"REV_AT_EPOCH":49120,"BSTAR":8.0956e-5,"MEAN_MOTION_DOT":1.43e-6,"MEAN_MOTION_DDOT":0},{"OBJECT_NAME":"NOAA 15","OBJECT_ID":"1998-030A","EPOCH":"2026-04-25T19:31:16.554720","MEAN_MOTION":14.27129817,"ECCENTRICITY":0.0011117,"INCLINATION":98.5104,"RA_OF_ASC_NODE":137.8531,"ARG_OF_PERICENTER":136.4485,"MEAN_ANOMALY":223.7575,"EPHEMERIS_TYPE":0,"CLASSIFICATION_TYPE":"U","NORAD_CAT_ID":25338,"ELEMENT_SET_NO":999,"REV_AT_EPOCH":45382,"BSTAR":6.7771e-5,"MEAN_MOTION_DOT":1.23e-6,"MEAN_MOTION_DDOT":0},{"OBJECT_NAME":"TECHSAT 1B (GO-32)","OBJECT_ID":"1998-043D","EPOCH":"2026-04-25T14:13:27.552000","MEAN_MOTION":14.24417549,"ECCENTRICITY":0.0001809,"INCLINATION":99.0061,"RA_OF_ASC_NODE":107.0293,"ARG_OF_PERICENTER":44.1616,"MEAN_ANOMALY":315.9706,"EPHEMERIS_TYPE":0,"CLASSIFICATION_TYPE":"U","NORAD_CAT_ID":25397,"ELEMENT_SET_NO":999,"REV_AT_EPOCH":44384,"BSTAR":4.3792e-5,"MEAN_MOTION_DOT":5.5e-7,"MEAN_MOTION_DDOT":0},{"OBJECT_NAME":"ISS (ZARYA)","OBJECT_ID":"1998-067A","EPOCH":"2026-04-25T14:51:50.575968","MEAN_MOTION":15.48952974,"ECCENTRICITY":0.0006949,"INCLINATION":51.632,"RA_OF_ASC_NODE":200.2872,"ARG_OF_PERICENTER":349.7097,"MEAN_ANOMALY":10.3748,"EPHEMERIS_TYPE":0,"CLASSIFICATION_TYPE":"U","NORAD_CAT_ID":25544,"ELEMENT_SET_NO":999,"REV_AT_EPOCH":56360,"BSTAR":0.00019457,"MEAN_MOTION_DOT":0.00010271,"MEAN_MOTION_DDOT":0},{"OBJECT_NAME":"ORSTED","OBJECT_ID":"1999-008B","EPOCH":"2026-04-25T17:32:00.036672","MEAN_MOTION":14.51753594,"ECCENTRICITY":0.0131778,"INCLINATION":96.4836,"RA_OF_ASC_NODE":35.1565,"ARG_OF_PERICENTER":355.6864,"MEAN_ANOMALY":4.3189,"EPHEMERIS_TYPE":0,"CLASSIFICATION_TYPE":"U","NORAD_CAT_ID":25635,"ELEMENT_SET_NO":999,"REV_AT_EPOCH":43435,"BSTAR":0.00015398,"MEAN_MOTION_DOT":6.59e-6,"MEAN_MOTION_DDOT":0},{"OBJECT_NAME":"LANDSAT 7","OBJECT_ID":"1999-020A","EPOCH":"2026-04-25T19:41:32.112384","MEAN_MOTION":14.63870925,"ECCENTRICITY":0.0001164,"INCLINATION":97.8594,"RA_OF_ASC_NODE":121.8566,"ARG_OF_PERICENTER":94.3162,"MEAN_ANOMALY":342.3425,"EPHEMERIS_TYPE":0,"CLASSIFICATION_TYPE":"U","NORAD_CAT_ID":25682,"ELEMENT_SET_NO":999,"REV_AT_EPOCH":43818,"BSTAR":9.2907e-5,"MEAN_MOTION_DOT":4.41e-6,"MEAN_MOTION_DDOT":0},{"OBJECT_NAME":"ORBCOMM FM36","OBJECT_ID":"1999-065E","EPOCH":"2026-04-25T11:44:59.578080","MEAN_MOTION":14.39096116,"ECCENTRICITY":0.0003123,"INCLINATION":45.04,"RA_OF_ASC_NODE":49.7365,"ARG_OF_PERICENTER":37.2539,"MEAN_ANOMALY":322.8526,"EPHEMERIS_TYPE":0,"CLASSIFICATION_TYPE":"U","NORAD_CAT_ID":25984,"ELEMENT_SET_NO":999,"REV_AT_EPOCH":37939,"BSTAR":0.00031566,"MEAN_MOTION_DOT":8.42e-6,"MEAN_MOTION_DDOT":0},{"OBJECT_NAME":"DMSP 5D-3 F15 (USA 147)","OBJECT_ID":"1999-067A","EPOCH":"2026-04-25T20:30:50.997024","MEAN_MOTION":14.17543083,"ECCENTRICITY":0.001069,"INCLINATION":99.0011,"RA_OF_ASC_NODE":153.7446,"ARG_OF_PERICENTER":146.7534,"MEAN_ANOMALY":294.2486,"EPHEMERIS_TYPE":0,"CLASSIFICATION_TYPE":"U","NORAD_CAT_ID":25991,"ELEMENT_SET_NO":999,"REV_AT_EPOCH":36323,"BSTAR":8.7611e-5,"MEAN_MOTION_DOT":1.32e-6,"MEAN_MOTION_DDOT":0},{"OBJECT_NAME":"OPAL (OO-38)","OBJECT_ID":"2000-004C","EPOCH":"2026-04-25T18:46:59.394432","MEAN_MOTION":14.37945076,"ECCENTRICITY":0.0035699,"INCLINATION":100.1897,"RA_OF_ASC_NODE":42.9475,"ARG_OF_PERICENTER":182.0717,"MEAN_ANOMALY":178.0322,"EPHEMERIS_TYPE":0,"CLASSIFICATION_TYPE":"U","NORAD_CAT_ID":26063,"ELEMENT_SET_NO":999,"REV_AT_EPOCH":37575,"BSTAR":5.1682e-5,"MEAN_MOTION_DOT":9.8e-7,"MEAN_MOTION_DDOT":0},{"OBJECT_NAME":"IMAGE","OBJECT_ID":"2000-017A","EPOCH":"2026-04-25T12:09:23.245056","MEAN_MOTION":1.6866558,"ECCENTRICITY":0.7471665,"INCLINATION":94.1879,"RA_OF_ASC_NODE":314.6723,"ARG_OF_PERICENTER":293.8028,"MEAN_ANOMALY":7.8719,"EPHEMERIS_TYPE":0,"CLASSIFICATION_TYPE":"U","NORAD_CAT_ID":26113,"ELEMENT_SET_NO":999,"REV_AT_EPOCH":16061,"BSTAR":0.0038868,"MEAN_MOTION_DOT":9.8e-7,"MEAN_MOTION_DDOT":0},{"OBJECT_NAME":"CLUSTER II-FM7 (SAMBA)","OBJECT_ID":"2000-041A","EPOCH":"2026-04-26T19:37:20.969184","MEAN_MOTION":0.44809102,"ECCENTRICITY":0.89922964,"INCLINATION":149.6713,"RA_OF_ASC_NODE":42.1462,"ARG_OF_PERICENTER":258.689,"MEAN_ANOMALY":0.4419,"EPHEMERIS_TYPE":0,"CLASSIFICATION_TYPE":"U","NORAD_CAT_ID":26410,"ELEMENT_SET_NO":999,"REV_AT_EPOCH":2007,"BSTAR":0,"MEAN_MOTION_DOT":2.042e-5,"MEAN_MOTION_DDOT":0},{"OBJECT_NAME":"CLUSTER II-FM8 (TANGO)","OBJECT_ID":"2000-045B","EPOCH":"2026-04-26T15:11:14.906688","MEAN_MOTION":0.44399945,"ECCENTRICITY":0.89958136,"INCLINATION":149.9394,"RA_OF_ASC_NODE":43.1014,"ARG_OF_PERICENTER":259.4942,"MEAN_ANOMALY":0.9419,"EPHEMERIS_TYPE":0,"CLASSIFICATION_TYPE":"U","NORAD_CAT_ID":26464,"ELEMENT_SET_NO":999,"REV_AT_EPOCH":2006,"BSTAR":0,"MEAN_MOTION_DOT":2.138e-5,"MEAN_MOTION_DDOT":0},{"OBJECT_NAME":"MEGSAT-1","OBJECT_ID":"2000-057B","EPOCH":"2026-04-25T17:28:20.436384","MEAN_MOTION":15.05188535,"ECCENTRICITY":0.0040255,"INCLINATION":64.5499,"RA_OF_ASC_NODE":237.1752,"ARG_OF_PERICENTER":289.5687,"MEAN_ANOMALY":70.1086,"EPHEMERIS_TYPE":0,"CLASSIFICATION_TYPE":"U","NORAD_CAT_ID":26546,"ELEMENT_SET_NO":999,"REV_AT_EPOCH":38976,"BSTAR":0.00022514,"MEAN_MOTION_DOT":3.098e-5,"MEAN_MOTION_DDOT":0},{"OBJECT_NAME":"PHASE 3D (AO-40)","OBJECT_ID":"2000-072B","EPOCH":"2026-04-25T04:07:42.845952","MEAN_MOTION":1.25588532,"ECCENTRICITY":0.7934401,"INCLINATION":9.5037,"RA_OF_ASC_NODE":359.1846,"ARG_OF_PERICENTER":161.8495,"MEAN_ANOMALY":265.2104,"EPHEMERIS_TYPE":0,"CLASSIFICATION_TYPE":"U","NORAD_CAT_ID":26609,"ELEMENT_SET_NO":999,"REV_AT_EPOCH":11684,"BSTAR":0,"MEAN_MOTION_DOT":-2.85e-6,"MEAN_MOTION_DDOT":0},{"OBJECT_NAME":"ODIN","OBJECT_ID":"2001-007A","EPOCH":"2026-04-25T15:38:12.581664","MEAN_MOTION":15.63195176,"ECCENTRICITY":0.0001967,"INCLINATION":97.3973,"RA_OF_ASC_NODE":153.7627,"ARG_OF_PERICENTER":40.6172,"MEAN_ANOMALY":319.5233,"EPHEMERIS_TYPE":0,"CLASSIFICATION_TYPE":"U","NORAD_CAT_ID":26702,"ELEMENT_SET_NO":999,"REV_AT_EPOCH":38116,"BSTAR":0.00053518,"MEAN_MOTION_DOT":0.00048977,"MEAN_MOTION_DDOT":0},{"OBJECT_NAME":"OMNI-M1","OBJECT_ID":"2001-026A","EPOCH":"2026-04-21T03:41:25.163808","MEAN_MOTION":3.9240146,"ECCENTRICITY":0.00162192,"INCLINATION":44.8539,"RA_OF_ASC_NODE":258.407,"ARG_OF_PERICENTER":42.5384,"MEAN_ANOMALY":317.5957,"EPHEMERIS_TYPE":0,"CLASSIFICATION_TYPE":"U","NORAD_CAT_ID":26857,"ELEMENT_SET_NO":999,"REV_AT_EPOCH":20333,"BSTAR":0,"MEAN_MOTION_DOT":-1.1e-7,"MEAN_MOTION_DDOT":0}]
